{
    "links": {
        "self": "http://www.neowsapp.com/rest/v1/neo/3363726?api_key=iIulBulltgU6a56xZRHN4H3l9WmuAYTsLGpBGhQ2"
    },
    "id": "3363726",
    "neo_reference_id": "3363726",
    "name": "(2006 YE)",
    "designation": "2006 YE",
    "nasa_jpl_url": "http://ssd.jpl.nasa.gov/sbdb.cgi?sstr=3363726",
    "absolute_magnitude_h": 27.3,
    "estimated_diameter": {
        "kilometers": {
            "estimated_diameter_min": 0.0092162655,
            "estimated_diameter_max": 0.0206081961
        },
        "meters": {
            "estimated_diameter_min": 9.216265485,
            "estimated_diameter_max": 20.6081961232
        },
        "miles": {
            "estimated_diameter_min": 0.0057267201,
            "estimated_diameter_max": 0.0128053354
        },
        "feet": {
            "estimated_diameter_min": 30.2370924539,
            "estimated_diameter_max": 67.6121941689
        }
    },
    "is_potentially_hazardous_asteroid": false,
    "close_approach_data": [
        {
            "close_approach_date": "1993-02-27",
            "close_approach_date_full": "1993-Feb-27 04:46",
            "epoch_date_close_approach": 730788360000,
            "relative_velocity": {
                "kilometers_per_second": "16.5050759263",
                "kilometers_per_hour": "59418.2733348499",
                "miles_per_hour": "36920.2043396461"
            },
            "miss_distance": {
                "astronomical": "0.3251436796",
                "lunar": "126.4808913644",
                "kilometers": "48640801.912122452",
                "miles": "30223992.8030237576"
            },
            "orbiting_body": "Earth"
        },
        {
            "close_approach_date": "2006-12-16",
            "close_approach_date_full": "2006-Dec-16 10:51",
            "epoch_date_close_approach": 1166266260000,
            "relative_velocity": {
                "kilometers_per_second": "6.4694876322",
                "kilometers_per_hour": "23290.1554758834",
                "miles_per_hour": "14471.5968844454"
            },
            "miss_distance": {
                "astronomical": "0.0130615293",
                "lunar": "5.0809348977",
                "kilometers": "1953976.962222591",
                "miles": "1214144.9836741158"
            },
            "orbiting_body": "Earth"
        },
        {
            "close_approach_date": "2011-05-09",
            "close_approach_date_full": "2011-May-09 03:21",
            "epoch_date_close_approach": 1304911260000,
            "relative_velocity": {
                "kilometers_per_second": "12.5581496602",
                "kilometers_per_hour": "45209.3387765926",
                "miles_per_hour": "28091.3249748222"
            },
            "miss_distance": {
                "astronomical": "0.0332312016",
                "lunar": "12.9269374224",
                "kilometers": "4971316.976900592",
                "miles": "3089033.1290764896"
            },
            "orbiting_body": "Mars"
        }
    ],
    "orbital_data": {
        "orbit_id": "6",
        "orbit_determination_date": "2017-04-06 09:07:19",
        "first_observation_date": "2006-12-16",
        "last_observation_date": "2006-12-17",
        "data_arc_in_days": 1,
        "observations_used": 28,
        "orbit_uncertainty": "7",
        "minimum_orbit_intersection": ".00175118",
        "jupiter_tisserand_invariant": "4.022",
        "epoch_osculation": "2459000.5",
        "eccentricity": ".4403911873284799",
        "semi_major_axis": "1.744844525030933",
        "inclination": ".3218084097220716",
        "ascending_node_longitude": "252.7300438880389",
        "orbital_period": "841.8476995293801",
        "perihelion_distance": ".976430372948963",
        "perihelion_argument": "211.3181396540127",
        "aphelion_distance": "2.513258677112903",
        "perihelion_time": "2459155.634007218885",
        "mean_anomaly": "293.659921349171",
        "mean_motion": ".4276307937899594",
        "equinox": "J2000",
        "orbit_class": {
            "orbit_class_type": "APO",
            "orbit_class_description": "Near-Earth asteroid orbits which cross the Earth’s orbit similar to that of 1862 Apollo",
            "orbit_class_range": "a (semi-major axis) > 1.0 AU; q (perihelion) < 1.017 AU"
        }
    },
    "is_sentry_object": false
}